IRIDIUM 26              
1 24903U 97043A   26016.29865255  .00000323  00000+0  10166-3 0  9992
2 24903  86.3945  21.0306 0002411  90.7009 269.4465 14.37358707487358
IRIDIUM 22              
1 24907U 97043E   26016.05765926  .00000255  00000+0  80702-4 0  9992
2 24907  86.3944  24.8546 0002257  87.1006 273.0449 14.36148286487321
DUMMY MASS 1            
1 24925U 97048A   26016.32297151  .00000302  00000+0  30320-4 0  9991
2 24925  86.3317  36.6943 0008926 105.1838 255.0374 14.87214606536801
DUMMY MASS 2            
1 24926U 97048B   26016.32074643  .00000303  00000+0  30643-4 0  9990
2 24926  86.3318  38.3426 0009492 114.8409 245.3804 14.86964979536576
IRIDIUM 29              
1 24944U 97051A   26016.14212580  .00000259  00000+0  81185-4 0  9995
2 24944  86.3921  54.4918 0002066  89.0933 271.0501 14.36691552483846
IRIDIUM 33              
1 24946U 97051C   26016.15218412  .00000227  00000+0  72778-4 0  9991
2 24946  86.3837  53.7699 0010016 100.6057 259.6268 14.35063002483285
IRIDIUM 28              
1 24948U 97051E   26016.32963113  .00000289  00000+0  89906-4 0  9996
2 24948  86.3926  51.8070 0002768  94.1427 266.0087 14.37592700484467
IRIDIUM 36              
1 24967U 97056C   26016.25975803  .00000307  00000+0  95447-4 0  9991
2 24967  86.3942  83.4678 0002429  91.1788 268.9688 14.37818504482832
